{
  "type": "FeatureCollection",
  "features": [
    {
      "type": "Feature",
      "properties": {
        "norad_id": 40545,
        "name": "GSAT0204 (GALILEO 8)",
        "group": "gnss",
        "lat": -40.39519763500921,
        "lon": -46.90349527438449,
        "alt_km": 23214.45278579822,
        "timestamp": "2025-12-05T19:30:25.808039+00:00",
        "meta_object_name": "GSAT0204 (GALILEO 8)",
        "meta_object_id": "2015-017B",
        "meta_epoch": "2025-12-04T03:15:24.834240",
        "meta_mean_motion": 1.70475395,
        "meta_eccentricity": 0.00062587,
        "meta_inclination": 56.8537,
        "meta_ra_of_asc_node": 346.9325,
        "meta_arg_of_pericenter": 261.1307,
        "meta_mean_anomaly": 98.8308,
        "meta_ephemeris_type": 0,
        "meta_classification_type": "U",
        "meta_norad_cat_id": 40545,
        "meta_element_set_no": 999,
        "meta_rev_at_epoch": 2892,
        "meta_bstar": 0,
        "meta_mean_motion_dot": -7.1e-07,
        "meta_mean_motion_ddot": 0,
        "tle_line1": "1 40545U 15017B   25338.13570410 -.00000071  00000+0  00000+0 0  9991",
        "tle_line2": "2 40545  56.8537 346.9325 0006258 261.1307  98.8308  1.70475395 28925"
      },
      "geometry": {
        "type": "Point",
        "coordinates": [
          -46.90349527438449,
          -40.39519763500921
        ]
      }
    },
    {
      "type": "Feature",
      "properties": {
        "norad_id": 40730,
        "name": "GPS BIIF-10 (PRN 08)",
        "group": "gnss",
        "lat": 24.832211351089757,
        "lon": -65.43373959891157,
        "alt_km": 19886.810328647152,
        "timestamp": "2025-12-05T19:30:25.808050+00:00",
        "meta_object_name": "GPS BIIF-10 (PRN 08)",
        "meta_object_id": "2015-033A",
        "meta_epoch": "2025-12-04T06:35:41.280576",
        "meta_mean_motion": 2.0056586,
        "meta_eccentricity": 0.01104506,
        "meta_inclination": 54.1381,
        "meta_ra_of_asc_node": 275.1212,
        "meta_arg_of_pericenter": 26.6019,
        "meta_mean_anomaly": 333.9621,
        "meta_ephemeris_type": 0,
        "meta_classification_type": "U",
        "meta_norad_cat_id": 40730,
        "meta_element_set_no": 999,
        "meta_rev_at_epoch": 7608,
        "meta_bstar": 0,
        "meta_mean_motion_dot": -3.2e-07,
        "meta_mean_motion_ddot": 0,
        "tle_line1": "1 40730U 15033A   25338.27478334 -.00000032  00000+0  00000+0 0  9999",
        "tle_line2": "2 40730  54.1381 275.1212 0110450  26.6019 333.9621  2.00565860 76083"
      },
      "geometry": {
        "type": "Point",
        "coordinates": [
          -65.43373959891157,
          24.832211351089757
        ]
      }
    },
    {
      "type": "Feature",
      "properties": {
        "norad_id": 40748,
        "name": "BEIDOU-3S M2S (C58)",
        "group": "gnss",
        "lat": -32.03399396407911,
        "lon": 154.6191755825324,
        "alt_km": 21508.808484823425,
        "timestamp": "2025-12-05T19:30:25.808063+00:00",
        "meta_object_name": "BEIDOU-3S M2S (C58)",
        "meta_object_id": "2015-037A",
        "meta_epoch": "2025-12-04T09:50:19.277376",
        "meta_mean_motion": 1.86229056,
        "meta_eccentricity": 0.00124004,
        "meta_inclination": 55.0462,
        "meta_ra_of_asc_node": 308.7497,
        "meta_arg_of_pericenter": 267.6151,
        "meta_mean_anomaly": 92.2259,
        "meta_ephemeris_type": 0,
        "meta_classification_type": "U",
        "meta_norad_cat_id": 40748,
        "meta_element_set_no": 999,
        "meta_rev_at_epoch": 7049,
        "meta_bstar": 0,
        "meta_mean_motion_dot": -6.8e-07,
        "meta_mean_motion_ddot": 0,
        "tle_line1": "1 40748U 15037A   25338.40994534 -.00000068  00000+0  00000+0 0  9991",
        "tle_line2": "2 40748  55.0462 308.7497 0012400 267.6151  92.2259  1.86229056 70498"
      },
      "geometry": {
        "type": "Point",
        "coordinates": [
          154.6191755825324,
          -32.03399396407911
        ]
      }
    },
    {
      "type": "Feature",
      "properties": {
        "norad_id": 40749,
        "name": "BEIDOU-3S M1S (C57)",
        "group": "gnss",
        "lat": 48.29068197684701,
        "lon": 0.3440645920729843,
        "alt_km": 21516.818490610698,
        "timestamp": "2025-12-05T19:30:25.808077+00:00",
        "meta_object_name": "BEIDOU-3S M1S (C57)",
        "meta_object_id": "2015-037B",
        "meta_epoch": "2025-12-01T22:57:46.412352",
        "meta_mean_motion": 1.86253762,
        "meta_eccentricity": 0.0003321,
        "meta_inclination": 55.0451,
        "meta_ra_of_asc_node": 308.8236,
        "meta_arg_of_pericenter": 355.9906,
        "meta_mean_anomaly": 3.9975,
        "meta_ephemeris_type": 0,
        "meta_classification_type": "U",
        "meta_norad_cat_id": 40749,
        "meta_element_set_no": 999,
        "meta_rev_at_epoch": 7045,
        "meta_bstar": 0,
        "meta_mean_motion_dot": -6e-07,
        "meta_mean_motion_ddot": 0,
        "tle_line1": "1 40749U 15037B   25335.95678718 -.00000060  00000+0  00000+0 0  9994",
        "tle_line2": "2 40749  55.0451 308.8236 0003321 355.9906   3.9975  1.86253762 70451"
      },
      "geometry": {
        "type": "Point",
        "coordinates": [
          0.3440645920729843,
          48.29068197684701
        ]
      }
    },
    {
      "type": "Feature",
      "properties": {
        "norad_id": 40889,
        "name": "GSAT0205 (GALILEO 9)",
        "group": "gnss",
        "lat": 54.993940570764984,
        "lon": -40.48879940077236,
        "alt_km": 23205.446102326707,
        "timestamp": "2025-12-05T19:30:25.808089+00:00",
        "meta_object_name": "GSAT0205 (GALILEO 9)",
        "meta_object_id": "2015-045A",
        "meta_epoch": "2025-12-03T21:42:02.149056",
        "meta_mean_motion": 1.70472902,
        "meta_eccentricity": 0.0005859,
        "meta_inclination": 55.0066,
        "meta_ra_of_asc_node": 227.0025,
        "meta_arg_of_pericenter": 38.6315,
        "meta_mean_anomaly": 321.5029,
        "meta_ephemeris_type": 0,
        "meta_classification_type": "U",
        "meta_norad_cat_id": 40889,
        "meta_element_set_no": 999,
        "meta_rev_at_epoch": 6368,
        "meta_bstar": 0,
        "meta_mean_motion_dot": 4e-07,
        "meta_mean_motion_ddot": 0,
        "tle_line1": "1 40889U 15045A   25337.90419154  .00000040  00000+0  00000+0 0  9999",
        "tle_line2": "2 40889  55.0066 227.0025 0005859  38.6315 321.5029  1.70472902 63681"
      },
      "geometry": {
        "type": "Point",
        "coordinates": [
          -40.48879940077236,
          54.993940570764984
        ]
      }
    },
    {
      "type": "Feature",
      "properties": {
        "norad_id": 40890,
        "name": "GSAT0206 (GALILEO 10)",
        "group": "gnss",
        "lat": -34.74356223510472,
        "lon": -162.07845522948003,
        "alt_km": 23223.827203028388,
        "timestamp": "2025-12-05T19:30:25.808100+00:00",
        "meta_object_name": "GSAT0206 (GALILEO 10)",
        "meta_object_id": "2015-045B",
        "meta_epoch": "2025-12-01T18:40:58.746144",
        "meta_mean_motion": 1.70473031,
        "meta_eccentricity": 0.0003438,
        "meta_inclination": 55.0064,
        "meta_ra_of_asc_node": 227.0564,
        "meta_arg_of_pericenter": 30.2471,
        "meta_mean_anomaly": 329.8532,
        "meta_ephemeris_type": 0,
        "meta_classification_type": "U",
        "meta_norad_cat_id": 40890,
        "meta_element_set_no": 999,
        "meta_rev_at_epoch": 6367,
        "meta_bstar": 0,
        "meta_mean_motion_dot": 3.4e-07,
        "meta_mean_motion_ddot": 0,
        "tle_line1": "1 40890U 15045B   25335.77845771  .00000034  00000+0  00000+0 0  9995",
        "tle_line2": "2 40890  55.0064 227.0564 0003438  30.2471 329.8532  1.70473031 63674"
      },
      "geometry": {
        "type": "Point",
        "coordinates": [
          -162.07845522948003,
          -34.74356223510472
        ]
      }
    },
    {
      "type": "Feature",
      "properties": {
        "norad_id": 40938,
        "name": "BEIDOU-3S IGSO-2S (C56)",
        "group": "gnss",
        "lat": -17.039764001133946,
        "lon": 96.20180395579177,
        "alt_km": 35538.4315314102,
        "timestamp": "2025-12-05T19:30:25.808112+00:00",
        "meta_object_name": "BEIDOU-3S IGSO-2S (C56)",
        "meta_object_id": "2015-053A",
        "meta_epoch": "2025-12-03T17:17:32.013024",
        "meta_mean_motion": 1.0027148,
        "meta_eccentricity": 0.00611089,
        "meta_inclination": 49.5266,
        "meta_ra_of_asc_node": 261.1136,
        "meta_arg_of_pericenter": 188.632,
        "meta_mean_anomaly": 338.5579,
        "meta_ephemeris_type": 0,
        "meta_classification_type": "U",
        "meta_norad_cat_id": 40938,
        "meta_element_set_no": 999,
        "meta_rev_at_epoch": 3739,
        "meta_bstar": 0,
        "meta_mean_motion_dot": -1.53e-06,
        "meta_mean_motion_ddot": 0,
        "tle_line1": "1 40938U 15053A   25337.72050941 -.00000153  00000+0  00000+0 0  9994",
        "tle_line2": "2 40938  49.5266 261.1136 0061108 188.6320 338.5579  1.00271480 37397"
      },
      "geometry": {
        "type": "Point",
        "coordinates": [
          96.20180395579177,
          -17.039764001133946
        ]
      }
    }
  ]
}